ORBCOMM FM05 [-]        
1 25117U 97084F   24062.97211474  .00001733  00000+0  56379-3 0  9999
2 25117  45.0156 103.8939 0002711 328.9178  31.1511 14.42258398372494
ORBCOMM FM06 [+]        
1 25118U 97084G   24063.41952685  .00002170  00000+0  69480-3 0  9999
2 25118  45.0139 101.9390 0001926 319.6882  55.0017 14.42261344373472
ORBCOMM FM07 [-]        
1 25119U 97084H   24063.40441112  .00001875  00000+0  60706-3 0  9990
2 25119  45.0134 102.5110 0003656 329.3507  30.7129 14.42190234373461
ORBCOMM FM03 [-]        
1 25158U 98007B   24063.41070122  .00001312  00000+0  53181-3 0  9994
2 25158 107.9790 250.3326 0047546 348.1096  11.8916 14.31893297356595
ORBCOMM FM04 [+]        
1 25159U 98007C   24063.41154770  .00001330  00000+0  53692-3 0  9994
2 25159 107.9775 253.2274 0043190 345.7494  14.2424 14.32148643356768
ORBCOMM FM17 [-]        
1 25413U 98046A   24063.37877469  .00001176  00000+0  47794-3 0  9996
2 25413  44.9960 315.6487 0002908   8.6077 351.4818 14.32869433335598
ORBCOMM FM18 [-]        
1 25414U 98046B   24063.57164429  .00001632  00000+0  61043-3 0  9994
2 25414  44.9924 243.2518 0004124  82.7935 277.3381 14.35539346336556
ORBCOMM FM19 [+]        
1 25415U 98046C   24063.53557618  .00001578  00000+0  59373-3 0  9999
2 25415  44.9933 244.7429 0002910  77.1999 312.0030 14.35375031336516
